[Satellite]
VERSION=1.1
NAME=STARLINK-1134
NICKNAME=STARLINK-1134
TLE1=1 45048U 20006E   20058.91667824 -.00043219  00000-0 -11962-2 0  9999
TLE2=2 45048  52.9944  92.5235 0001395  87.4726 208.5056 15.36390849  4945
STATUS=0
